{"type": "FeatureCollection", "features": [ {"type": "Feature", "properties": {"norad_id": 66436, "name": "STARLINK-35501", "group": "last-30-days", "lat": -14.322955820940605, "lon": -85.09017523831817, "alt_km": 415.76551171795745, "timestamp": "2025-12-07T07:31:35.085073+00:00", "meta": {"OBJECT_NAME": "STARLINK-35501", "OBJECT_ID": "2025-259Q", "EPOCH": "2025-12-06T16:45:00.432288", "MEAN_MOTION": 15.50605966, "ECCENTRICITY": 0.00014143, "INCLINATION": 43.0008, "RA_OF_ASC_NODE": 82.6107, "ARG_OF_PERICENTER": 280.4896, "MEAN_ANOMALY": 79.5804, "EPHEMERIS_TYPE": 0, "CLASSIFICATION_TYPE": "U", "NORAD_CAT_ID": 66436, "ELEMENT_SET_NO": 999, "REV_AT_EPOCH": 523, "BSTAR": 0.0023641253, "MEAN_MOTION_DOT": 0.00141011, "MEAN_MOTION_DDOT": 0}, "tle": {"line1": "1 66436U 25259Q   25340.69792167  .00141011  00000+0  23641-2 0  9994", "line2": "2 66436  43.0008  82.6107 0001414 280.4896  79.5804 15.50605966  5239"}}, "geometry": {"type": "Point", "coordinates": [-85.09017523831817, -14.322955820940605]}}, {"type": "Feature", "properties": {"norad_id": 66437, "name": "STARLINK-35474", "group": "last-30-days", "lat": -15.603380079232709, "lon": -83.55886808909939, "alt_km": 415.7884077857907, "timestamp": "2025-12-07T07:31:35.085085+00:00", "meta": {"OBJECT_NAME": "STARLINK-35474", "OBJECT_ID": "2025-259R", "EPOCH": "2025-12-06T16:44:30.685632", "MEAN_MOTION": 15.50622786, "ECCENTRICITY": 0.00020021, "INCLINATION": 43.0007, "RA_OF_ASC_NODE": 82.6072, "ARG_OF_PERICENTER": 283.6406, "MEAN_ANOMALY": 76.4231, "EPHEMERIS_TYPE": 0, "CLASSIFICATION_TYPE": "U", "NORAD_CAT_ID": 66437, "ELEMENT_SET_NO": 999, "REV_AT_EPOCH": 523, "BSTAR": 0.0025207389, "MEAN_MOTION_DOT": 0.00150655, "MEAN_MOTION_DDOT": 0}, "tle": {"line1": "1 66437U 25259R   25340.69757738  .00150655  00000+0  25207-2 0  9994", "line2": "2 66437  43.0007  82.6072 0002002 283.6406  76.4231 15.50622786  5235"}}, "geometry": {"type": "Point", "coordinates": [-83.55886808909939, -15.603380079232709]}}, {"type": "Feature", "properties": {"norad_id": 66438, "name": "STARLINK-34681", "group": "last-30-days", "lat": -17.151501354158192, "lon": -81.6628879923644, "alt_km": 414.729721092157, "timestamp": "2025-12-07T07:31:35.085096+00:00", "meta": {"OBJECT_NAME": "STARLINK-34681", "OBJECT_ID": "2025-259S", "EPOCH": "2025-12-06T13:38:30.180768", "MEAN_MOTION": 15.5073296, "ECCENTRICITY": 0.00018147, "INCLINATION": 43.0007, "RA_OF_ASC_NODE": 83.3579, "ARG_OF_PERICENTER": 250.1755, "MEAN_ANOMALY": 109.8909, "EPHEMERIS_TYPE": 0, "CLASSIFICATION_TYPE": "U", "NORAD_CAT_ID": 66438, "ELEMENT_SET_NO": 999, "REV_AT_EPOCH": 510, "BSTAR": 0.0029956602, "MEAN_MOTION_DOT": 0.00180499, "MEAN_MOTION_DDOT": 0}, "tle": {"line1": "1 66438U 25259S   25340.56840487  .00180499  00000+0  29957-2 0  9990", "line2": "2 66438  43.0007  83.3579 0001814 250.1755 109.8909 15.50732960  5107"}}, "geometry": {"type": "Point", "coordinates": [-81.6628879923644, -17.151501354158192]}}, {"type": "Feature", "properties": {"norad_id": 66439, "name": "STARLINK-35327", "group": "last-30-days", "lat": -13.147612795080086, "lon": -86.47062731153336, "alt_km": 415.4667379080738, "timestamp": "2025-12-07T07:31:35.085108+00:00", "meta": {"OBJECT_NAME": "STARLINK-35327", "OBJECT_ID": "2025-259T", "EPOCH": "2025-12-06T15:12:44.352288", "MEAN_MOTION": 15.50639465, "ECCENTRICITY": 0.00023373, "INCLINATION": 43.0013, "RA_OF_ASC_NODE": 82.9909, "ARG_OF_PERICENTER": 280.0229, "MEAN_ANOMALY": 80.0367, "EPHEMERIS_TYPE": 0, "CLASSIFICATION_TYPE": "U", "NORAD_CAT_ID": 66439, "ELEMENT_SET_NO": 999, "REV_AT_EPOCH": 522, "BSTAR": 0.0023870781, "MEAN_MOTION_DOT": 0.00142587, "MEAN_MOTION_DDOT": 0}, "tle": {"line1": "1 66439U 25259T   25340.63384667  .00142587  00000+0  23871-2 0  9997", "line2": "2 66439  43.0013  82.9909 0002337 280.0229  80.0367 15.50639465  5223"}}, "geometry": {"type": "Point", "coordinates": [-86.47062731153336, -13.147612795080086]}}, {"type": "Feature", "properties": {"norad_id": 66440, "name": "STARLINK-35405", "group": "last-30-days", "lat": -19.31708383063589, "lon": -78.91800111450245, "alt_km": 415.0325613250179, "timestamp": "2025-12-07T07:31:35.085119+00:00", "meta": {"OBJECT_NAME": "STARLINK-35405", "OBJECT_ID": "2025-259U", "EPOCH": "2025-12-05T08:15:37.425888", "MEAN_MOTION": 15.50623801, "ECCENTRICITY": 0.00020429, "INCLINATION": 43.0001, "RA_OF_ASC_NODE": 90.5135, "ARG_OF_PERICENTER": 280.0264, "MEAN_ANOMALY": 80.0366, "EPHEMERIS_TYPE": 0, "CLASSIFICATION_TYPE": "U", "NORAD_CAT_ID": 66440, "ELEMENT_SET_NO": 999, "REV_AT_EPOCH": 502, "BSTAR": 0.0023681414, "MEAN_MOTION_DOT": 0.0014135, "MEAN_MOTION_DDOT": 0}, "tle": {"line1": "1 66440U 25259U   25339.34418317  .00141350  00000+0  23681-2 0  9991", "line2": "2 66440  43.0001  90.5135 0002042 280.0264  80.0366 15.50623801  5024"}}, "geometry": {"type": "Point", "coordinates": [-78.91800111450245, -19.31708383063589]}}, {"type": "Feature", "properties": {"norad_id": 66441, "name": "STARLINK-35426", "group": "last-30-days", "lat": -20.753640484816167, "lon": -77.02692490127038, "alt_km": 414.80926491487116, "timestamp": "2025-12-07T07:31:35.085135+00:00", "meta": {"OBJECT_NAME": "STARLINK-35426", "OBJECT_ID": "2025-259V", "EPOCH": "2025-12-05T08:15:07.746624", "MEAN_MOTION": 15.50636009, "ECCENTRICITY": 0.00024039, "INCLINATION": 43, "RA_OF_ASC_NODE": 90.5091, "ARG_OF_PERICENTER": 280.7143, "MEAN_ANOMALY": 79.3447, "EPHEMERIS_TYPE": 0, "CLASSIFICATION_TYPE": "U", "NORAD_CAT_ID": 66441, "ELEMENT_SET_NO": 999, "REV_AT_EPOCH": 502, "BSTAR": 0.0027168775, "MEAN_MOTION_DOT": 0.00162736, "MEAN_MOTION_DDOT": 0}, "tle": {"line1": "1 66441U 25259V   25339.34383966  .00162736  00000+0  27169-2 0  9999", "line2": "2 66441  43.0000  90.5091 0002403 280.7143  79.3447 15.50636009  5024"}}, "geometry": {"type": "Point", "coordinates": [-77.02692490127038, -20.753640484816167]}}, {"type": "Feature", "properties": {"norad_id": 66442, "name": "STARLINK-34724", "group": "last-30-days", "lat": -20.834989530969317, "lon": -76.9137118644065, "alt_km": 415.12645553892617, "timestamp": "2025-12-07T07:31:35.085145+00:00", "meta": {"OBJECT_NAME": "STARLINK-34724", "OBJECT_ID": "2025-259W", "EPOCH": "2025-12-06T13:37:01.226784", "MEAN_MOTION": 15.50746054, "ECCENTRICITY": 0.00014223, "INCLINATION": 43.0003, "RA_OF_ASC_NODE": 83.3503, "ARG_OF_PERICENTER": 255.0351, "MEAN_ANOMALY": 105.0352, "EPHEMERIS_TYPE": 0, "CLASSIFICATION_TYPE": "U", "NORAD_CAT_ID": 66442, "ELEMENT_SET_NO": 999, "REV_AT_EPOCH": 521, "BSTAR": 0.0031841465, "MEAN_MOTION_DOT": 0.00192258, "MEAN_MOTION_DDOT": 0}, "tle": {"line1": "1 66442U 25259W   25340.56737531  .00192258  00000+0  31841-2 0  9991", "line2": "2 66442  43.0003  83.3503 0001422 255.0351 105.0352 15.50746054  5217"}}, "geometry": {"type": "Point", "coordinates": [-76.9137118644065, -20.834989530969317]}}, {"type": "Feature", "properties": {"norad_id": 66443, "name": "STARLINK-35219", "group": "last-30-days", "lat": -21.954390120088078, "lon": -75.39199013134032, "alt_km": 415.19409889450253, "timestamp": "2025-12-07T07:31:35.085155+00:00", "meta": {"OBJECT_NAME": "STARLINK-35219", "OBJECT_ID": "2025-259X", "EPOCH": "2025-12-06T13:36:31.548384", "MEAN_MOTION": 15.50724046, "ECCENTRICITY": 0.00015671, "INCLINATION": 43.0012, "RA_OF_ASC_NODE": 83.3472, "ARG_OF_PERICENTER": 246.0575, "MEAN_ANOMALY": 114.0122, "EPHEMERIS_TYPE": 0, "CLASSIFICATION_TYPE": "U", "NORAD_CAT_ID": 66443, "ELEMENT_SET_NO": 999, "REV_AT_EPOCH": 510, "BSTAR": 0.0027615281, "MEAN_MOTION_DOT": 0.00166001, "MEAN_MOTION_DDOT": 0}, "tle": {"line1": "1 66443U 25259X   25340.56703181  .00166001  00000+0  27615-2 0  9997", "line2": "2 66443  43.0012  83.3472 0001567 246.0575 114.0122 15.50724046  5101"}}, "geometry": {"type": "Point", "coordinates": [-75.39199013134032, -21.954390120088078]}}, {"type": "Feature", "properties": {"norad_id": 66444, "name": "STARLINK-35360", "group": "last-30-days", "lat": -25.30267854958726, "lon": -70.55135608061657, "alt_km": 415.1540017159541, "timestamp": "2025-12-07T07:31:35.085165+00:00", "meta": {"OBJECT_NAME": "STARLINK-35360", "OBJECT_ID": "2025-259Y", "EPOCH": "2025-12-06T15:07:47.723808", "MEAN_MOTION": 15.50706932, "ECCENTRICITY": 0.00032908, "INCLINATION": 43.001, "RA_OF_ASC_NODE": 82.962, "ARG_OF_PERICENTER": 267.8962, "MEAN_ANOMALY": 92.1521, "EPHEMERIS_TYPE": 0, "CLASSIFICATION_TYPE": "U", "NORAD_CAT_ID": 66444, "ELEMENT_SET_NO": 999, "REV_AT_EPOCH": 522, "BSTAR": 0.0024220976, "MEAN_MOTION_DOT": 0.00145089, "MEAN_MOTION_DDOT": 0}, "tle": {"line1": "1 66444U 25259Y   25340.63041347  .00145089  00000+0  24221-2 0  9998", "line2": "2 66444  43.0010  82.9620 0003290 267.8962  92.1521 15.50706932  5222"}}, "geometry": {"type": "Point", "coordinates": [-70.55135608061657, -25.30267854958726]}}, {"type": "Feature", "properties": {"norad_id": 66445, "name": "STARLINK-34698", "group": "last-30-days", "lat": -23.144655344540286, "lon": -73.72482950075525, "alt_km": 415.1777495804281, "timestamp": "2025-12-07T07:31:35.085175+00:00", "meta": {"OBJECT_NAME": "STARLINK-34698", "OBJECT_ID": "2025-259Z", "EPOCH": "2025-12-06T13:36:01.846656", "MEAN_MOTION": 15.50730706, "ECCENTRICITY": 0.00016523, "INCLINATION": 43.0011, "RA_OF_ASC_NODE": 83.3434, "ARG_OF_PERICENTER": 246.4478, "MEAN_ANOMALY": 113.6208, "EPHEMERIS_TYPE": 0, "CLASSIFICATION_TYPE": "U", "NORAD_CAT_ID": 66445, "ELEMENT_SET_NO": 999, "REV_AT_EPOCH": 510, "BSTAR": 0.0028741918, "MEAN_MOTION_DOT": 0.00172984, "MEAN_MOTION_DDOT": 0}, "tle": {"line1": "1 66445U 25259Z   25340.56668804  .00172984  00000+0  28742-2 0  9990", "line2": "2 66445  43.0011  83.3434 0001652 246.4478 113.6208 15.50730706  5101"}}, "geometry": {"type": "Point", "coordinates": [-73.72482950075525, -23.144655344540286]}}]}